0 DELTA 1 DEB
1 10837U 76077CH  13285.59861437 -.00000176  00000-0 -14875-2 0  4301
2 10837 102.2577 061.7244 0200181 214.5761 206.9668 12.03951368636276
0 DELTA 1 DEB
1 10837U 76077CH  13288.34030477  .00000036  00000-0  86062-3 0  4311
2 10837 102.2584 064.3022 0200197 209.9076 210.0377 12.03949714636603
0 DELTA 1 DEB
1 10837U 76077CH  13290.93047509  .00000208  00000-0  27772-2 0  4327
2 10837 102.2590 066.7373 0200191 205.5020 276.3706 12.03948932636916
0 DELTA 1 DEB
1 10837U 76077CH  13293.32595466  .00000327  00000-0  41015-2 0  4332
2 10837 102.2611 068.9920 0200167 201.4268 218.8714 12.03949571637207
0 DELTA 1 DEB
1 10837U 76077CH  13295.91696054  .00000345  00000-0  42994-2 0  4342
2 10837 102.2603 071.4268 0200161 197.0096 288.8358 12.03951345637512
